ONEWEB-0037             
1 45440U 20020S   24024.90543894  .00000337  00000+0  91609-3 0  9995
2 45440  87.8968 194.8021 0001300 105.6422 254.4849 13.11418941188101
ONEWEB-0042             
1 45441U 20020T   24024.91342106  .00000551  00000+0  15185-2 0  9992
2 45441  87.8972 194.8234 0001488 102.5585 257.5709 13.11420390188072
ONEWEB-0098             
1 45442U 20020U   24025.51743889  .00000240  00000+0  64111-3 0  9992
2 45442  87.8973 194.7132 0001582  92.0431 268.0878 13.11419022188139
ONEWEB-0055             
1 45443U 20020V   24024.97117780 -.00000391  00000+0 -11393-2 0  9999
2 45443  87.8972 194.8256 0001596  92.5156 267.6155 13.11418471188041
ONEWEB-0093             
1 45444U 20020W   24024.94439489 -.00000266  00000+0 -78732-3 0  9992
2 45444  87.8972 194.8097 0001729  92.8922 267.2404 13.11414781188095
ONEWEB-0029             
1 45445U 20020X   24024.96387109 -.00000399  00000+0 -11629-2 0  9994
2 45445  87.8974 194.8194 0001505 104.3590 255.7705 13.11418459188089
ONEWEB-0068             
1 45446U 20020Y   24024.93872764 -.00000033  00000+0 -12931-3 0  9991
2 45446  87.8971 194.8091 0001624  97.3344 262.7969 13.11415256188018
ONEWEB-0046             
1 45447U 20020Z   24025.47036249  .00000241  00000+0  64524-3 0  9996
2 45447  87.8971 194.7165 0001214 107.2916 252.8344 13.11415582188100
